[
    {
        "Altitude(m)": 707095.7500006966,
        "Argument of Periapsis(deg)": 0.0022780242373254137,
        "Eccentricity": 0.0,
        "Inclination(deg)": 45.0,
        "Latitude(deg)": 44.20238014283786,
        "Longitude(deg)": 24.55967404842409,
        "Mean Anomaly(deg)": 100.48844332949618,
        "RAAN(deg)": 19.997849611708357,
        "Satellite Name": "Constellation 1 94",
        "Satellite Number": 94,
        "Semi-Major Axis(m)": 7083131.272910544,
        "Time(s)": 38
    },
    {
        "Altitude(m)": 707093.2960619722,
        "Argument of Periapsis(deg)": 0.002337972243570819,
        "Eccentricity": 0.0,
        "Inclination(deg)": 45.0,
        "Latitude(deg)": 44.19144144093555,
        "Longitude(deg)": 24.638678417647117,
        "Mean Anomaly(deg)": 100.54914446974607,
        "RAAN(deg)": 19.99779302254279,
        "Satellite Name": "Constellation 1 94",
        "Satellite Number": 94,
        "Semi-Major Axis(m)": 7083131.272910544,
        "Time(s)": 39
    },
    {
        "Altitude(m)": 707090.8287574849,
        "Argument of Periapsis(deg)": 0.0023979202498162246,
        "Eccentricity": 0.0,
        "Inclination(deg)": 45.0,
        "Latitude(deg)": 44.18044229804005,
        "Longitude(deg)": 24.717651983561478,
        "Mean Anomaly(deg)": 100.60984560999596,
        "RAAN(deg)": 19.99773643337722,
        "Satellite Name": "Constellation 1 94",
        "Satellite Number": 94,
        "Semi-Major Axis(m)": 7083131.272910544,
        "Time(s)": 40
    },
    {
        "Altitude(m)": 707088.3481017721,
        "Argument of Periapsis(deg)": 0.00245786825606163,
        "Eccentricity": 0.0,
        "Inclination(deg)": 45.0,
        "Latitude(deg)": 44.169382759378266,
        "Longitude(deg)": 24.796594599940853,
        "Mean Anomaly(deg)": 100.67054675024586,
        "RAAN(deg)": 19.99767984421165,
        "Satellite Name": "Constellation 1 94",
        "Satellite Number": 94,
        "Semi-Major Axis(m)": 7083131.272910544,
        "Time(s)": 41
    },
    {
        "Altitude(m)": 707085.8541094529,
        "Argument of Periapsis(deg)": 0.002517816262307036,
        "Eccentricity": 0.0,
        "Inclination(deg)": 45.0,
        "Latitude(deg)": 44.15826287038265,
        "Longitude(deg)": 24.875506121049916,
        "Mean Anomaly(deg)": 100.73124789049577,
        "RAAN(deg)": 19.997623255046083,
        "Satellite Name": "Constellation 1 94",
        "Satellite Number": 94,
        "Semi-Major Axis(m)": 7083131.272910544,
        "Time(s)": 42
    },
    {
        "Altitude(m)": 707083.3467952366,
        "Argument of Periapsis(deg)": 0.0025777642685524413,
        "Eccentricity": 0.0,
        "Inclination(deg)": 45.0,
        "Latitude(deg)": 44.147082676690424,
        "Longitude(deg)": 24.954386401645742,
        "Mean Anomaly(deg)": 100.79194903074564,
        "RAAN(deg)": 19.997566665880512,
        "Satellite Name": "Constellation 1 94",
        "Satellite Number": 94,
        "Semi-Major Axis(m)": 7083131.272910544,
        "Time(s)": 43
    },
    {
        "Altitude(m)": 707080.8261738942,
        "Argument of Periapsis(deg)": 0.002637712274797847,
        "Eccentricity": 0.0,
        "Inclination(deg)": 45.0,
        "Latitude(deg)": 44.13584222414241,
        "Longitude(deg)": 25.033235128882627,
        "Mean Anomaly(deg)": 100.85265017099556,
        "RAAN(deg)": 19.997510076714942,
        "Satellite Name": "Constellation 1 94",
        "Satellite Number": 94,
        "Semi-Major Axis(m)": 7083131.272910544,
        "Time(s)": 44
    },
    {
        "Altitude(m)": 707078.2922602934,
        "Argument of Periapsis(deg)": 0.0026976602810432526,
        "Eccentricity": 0.0,
        "Inclination(deg)": 45.0,
        "Latitude(deg)": 44.12454155878336,
        "Longitude(deg)": 25.11205249470204,
        "Mean Anomaly(deg)": 100.91335131124546,
        "RAAN(deg)": 19.99745348754937,
        "Satellite Name": "Constellation 1 94",
        "Satellite Number": 94,
        "Semi-Major Axis(m)": 7083131.272910544,
        "Time(s)": 45
    },
    {
        "Altitude(m)": 707075.7450693679,
        "Argument of Periapsis(deg)": 0.0027576082872886585,
        "Eccentricity": 0.0,
        "Inclination(deg)": 45.0,
        "Latitude(deg)": 44.11318072685944,
        "Longitude(deg)": 25.190838187251085,
        "Mean Anomaly(deg)": 100.97405245149538,
        "RAAN(deg)": 19.9973968983838,
        "Satellite Name": "Constellation 1 94",
        "Satellite Number": 94,
        "Semi-Major Axis(m)": 7083131.272910544,
        "Time(s)": 46
    },
    {
        "Altitude(m)": 707073.1846161383,
        "Argument of Periapsis(deg)": 0.0028175562935340644,
        "Eccentricity": 0.0,
        "Inclination(deg)": 45.0,
        "Latitude(deg)": 44.101759774818476,
        "Longitude(deg)": 25.269592063272874,
        "Mean Anomaly(deg)": 101.03475359174524,
        "RAAN(deg)": 19.997340309218234,
        "Satellite Name": "Constellation 1 94",
        "Satellite Number": 94,
        "Semi-Major Axis(m)": 7083131.272910544,
        "Time(s)": 47
    },
    {
        "Altitude(m)": 707070.6109157061,
        "Argument of Periapsis(deg)": 0.00287750429977947,
        "Eccentricity": 0.0,
        "Inclination(deg)": 45.0,
        "Latitude(deg)": 44.0902787493087,
        "Longitude(deg)": 25.34831398001098,
        "Mean Anomaly(deg)": 101.09545473199516,
        "RAAN(deg)": 19.997283720052664,
        "Satellite Name": "Constellation 1 94",
        "Satellite Number": 94,
        "Semi-Major Axis(m)": 7083131.272910544,
        "Time(s)": 48
    },
    {
        "Altitude(m)": 707068.0239832386,
        "Argument of Periapsis(deg)": 0.002937452306024875,
        "Eccentricity": 0.0,
        "Inclination(deg)": 45.0,
        "Latitude(deg)": 44.07873769717819,
        "Longitude(deg)": 25.427003795210627,
        "Mean Anomaly(deg)": 101.15615587224505,
        "RAAN(deg)": 19.997227130887094,
        "Satellite Name": "Constellation 1 94",
        "Satellite Number": 94,
        "Semi-Major Axis(m)": 7083131.272910544,
        "Time(s)": 49
    },
    {
        "Altitude(m)": 707065.4238339985,
        "Argument of Periapsis(deg)": 0.0029974003122702807,
        "Eccentricity": 0.0,
        "Inclination(deg)": 45.0,
        "Latitude(deg)": 44.06713666547377,
        "Longitude(deg)": 25.50566136712021,
        "Mean Anomaly(deg)": 101.21685701249494,
        "RAAN(deg)": 19.997170541721523,
        "Satellite Name": "Constellation 1 94",
        "Satellite Number": 94,
        "Semi-Major Axis(m)": 7083131.272910544,
        "Time(s)": 50
    },
    {
        "Altitude(m)": 707062.8104833176,
        "Argument of Periapsis(deg)": 0.0030573483185156866,
        "Eccentricity": 0.0,
        "Inclination(deg)": 45.0,
        "Latitude(deg)": 44.055475701440265,
        "Longitude(deg)": 25.584286554493026,
        "Mean Anomaly(deg)": 101.27755815274482,
        "RAAN(deg)": 19.997113952555956,
        "Satellite Name": "Constellation 1 94",
        "Satellite Number": 94,
        "Semi-Major Axis(m)": 7083131.272910544,
        "Time(s)": 51
    },
    {
        "Altitude(m)": 707060.1839466121,
        "Argument of Periapsis(deg)": 0.003117296324761092,
        "Eccentricity": 0.0,
        "Inclination(deg)": 45.0,
        "Latitude(deg)": 44.04375485251929,
        "Longitude(deg)": 25.662879048491416,
        "Mean Anomaly(deg)": 101.33825929299474,
        "RAAN(deg)": 19.997057363390386,
        "Satellite Name": "Constellation 1 94",
        "Satellite Number": 94,
        "Semi-Major Axis(m)": 7083131.272910544,
        "Time(s)": 52
    },
    {
        "Altitude(m)": 707057.5442393684,
        "Argument of Periapsis(deg)": 0.0031772443310064975,
        "Eccentricity": 0.0,
        "Inclination(deg)": 45.0,
        "Latitude(deg)": 44.0319741663497,
        "Longitude(deg)": 25.741439045076415,
        "Mean Anomaly(deg)": 101.39896043324464,
        "RAAN(deg)": 19.997000774224816,
        "Satellite Name": "Constellation 1 94",
        "Satellite Number": 94,
        "Semi-Major Axis(m)": 7083131.272910544,
        "Time(s)": 53
    },
    {
        "Altitude(m)": 707054.8913771624,
        "Argument of Periapsis(deg)": 0.0032371923372519038,
        "Eccentricity": 0.0,
        "Inclination(deg)": 45.0,
        "Latitude(deg)": 44.02013369076479,
        "Longitude(deg)": 25.819966236426776,
        "Mean Anomaly(deg)": 101.45966157349454,
        "RAAN(deg)": 19.99694418505925,
        "Satellite Name": "Constellation 1 94",
        "Satellite Number": 94,
        "Semi-Major Axis(m)": 7083131.272910544,
        "Time(s)": 54
    },
    {
        "Altitude(m)": 707052.2253756387,
        "Argument of Periapsis(deg)": 0.0032971403434973088,
        "Eccentricity": 0.0,
        "Inclination(deg)": 45.0,
        "Latitude(deg)": 44.00823347379265,
        "Longitude(deg)": 25.898460483328908,
        "Mean Anomaly(deg)": 101.52036271374448,
        "RAAN(deg)": 19.996887595893675,
        "Satellite Name": "Constellation 1 94",
        "Satellite Number": 94,
        "Semi-Major Axis(m)": 7083131.272910544,
        "Time(s)": 55
    },
    {
        "Altitude(m)": 707049.5462505316,
        "Argument of Periapsis(deg)": 0.0033570883497427146,
        "Eccentricity": 0.0,
        "Inclination(deg)": 45.0,
        "Latitude(deg)": 43.996273563655194,
        "Longitude(deg)": 25.9769216470806,
        "Mean Anomaly(deg)": 101.58106385399432,
        "RAAN(deg)": 19.996831006728108,
        "Satellite Name": "Constellation 1 94",
        "Satellite Number": 94,
        "Semi-Major Axis(m)": 7083131.272910544,
        "Time(s)": 56
    }
]